{
    "links": {
        "self": "http://www.neowsapp.com/rest/v1/neo/3696443?api_key=iIulBulltgU6a56xZRHN4H3l9WmuAYTsLGpBGhQ2"
    },
    "id": "3696443",
    "neo_reference_id": "3696443",
    "name": "(2014 WE7)",
    "designation": "2014 WE7",
    "nasa_jpl_url": "http://ssd.jpl.nasa.gov/sbdb.cgi?sstr=3696443",
    "absolute_magnitude_h": 22.9,
    "estimated_diameter": {
        "kilometers": {
            "estimated_diameter_min": 0.0699125232,
            "estimated_diameter_max": 0.1563291544
        },
        "meters": {
            "estimated_diameter_min": 69.9125232246,
            "estimated_diameter_max": 156.3291544087
        },
        "miles": {
            "estimated_diameter_min": 0.0434416145,
            "estimated_diameter_max": 0.097138403
        },
        "feet": {
            "estimated_diameter_min": 229.3718026961,
            "estimated_diameter_max": 512.8909429502
        }
    },
    "is_potentially_hazardous_asteroid": false,
    "close_approach_data": [
        {
            "close_approach_date": "2014-11-18",
            "close_approach_date_full": "2014-Nov-18 08:50",
            "epoch_date_close_approach": 1416300600000,
            "relative_velocity": {
                "kilometers_per_second": "23.3818877315",
                "kilometers_per_hour": "84174.7958334148",
                "miles_per_hour": "52302.9446666015"
            },
            "miss_distance": {
                "astronomical": "0.1232837",
                "lunar": "47.9573593",
                "kilometers": "18442978.925719",
                "miles": "11459935.7001622"
            },
            "orbiting_body": "Earth"
        }
    ],
    "orbital_data": {
        "orbit_id": "4",
        "orbit_determination_date": "2017-04-06 08:37:26",
        "first_observation_date": "2014-11-17",
        "last_observation_date": "2014-11-23",
        "data_arc_in_days": 6,
        "observations_used": 47,
        "orbit_uncertainty": "9",
        "minimum_orbit_intersection": ".118813",
        "jupiter_tisserand_invariant": "2.987",
        "epoch_osculation": "2456980.5",
        "eccentricity": ".5876960360241905",
        "semi_major_axis": "2.437127322257759",
        "inclination": "39.67680933304486",
        "ascending_node_longitude": "231.5554642173897",
        "orbital_period": "1389.683031449308",
        "perihelion_distance": "1.004837255680624",
        "perihelion_argument": "223.6123396235024",
        "aphelion_distance": "3.869417388834893",
        "perihelion_time": "2457014.731748620655",
        "mean_anomaly": "351.1322012109599",
        "mean_motion": ".2590518786320317",
        "equinox": "J2000",
        "orbit_class": {
            "orbit_class_type": "APO",
            "orbit_class_description": "Near-Earth asteroid orbits which cross the Earth’s orbit similar to that of 1862 Apollo",
            "orbit_class_range": "a (semi-major axis) > 1.0 AU; q (perihelion) < 1.017 AU"
        }
    },
    "is_sentry_object": false
}